[{"OBJECT_NAME":"KUIPER-00147","OBJECT_ID":"2025-217G","EPOCH":"2026-03-09T07:32:50.582976","MEAN_MOTION":14.79937962,"ECCENTRICITY":4.753e-5,"INCLINATION":51.8994,"RA_OF_ASC_NODE":42.2587,"ARG_OF_PERICENTER":107.8804,"MEAN_ANOMALY":252.2211,"EPHEMERIS_TYPE":0,"CLASSIFICATION_TYPE":"U","NORAD_CAT_ID":65768,"ELEMENT_SET_NO":999,"REV_AT_EPOCH":2485,"BSTAR":2.5065127e-5,"MEAN_MOTION_DOT":-3.0e-7,"MEAN_MOTION_DDOT":0},{"OBJECT_NAME":"EGYPTSAT 1","OBJECT_ID":"2007-012A","EPOCH":"2026-03-09T10:38:29.569920","MEAN_MOTION":14.79515309,"ECCENTRICITY":0.0006267,"INCLINATION":98.0485,"RA_OF_ASC_NODE":24.3877,"ARG_OF_PERICENTER":70.7892,"MEAN_ANOMALY":289.3997,"EPHEMERIS_TYPE":0,"CLASSIFICATION_TYPE":"U","NORAD_CAT_ID":31117,"ELEMENT_SET_NO":999,"REV_AT_EPOCH":1496,"BSTAR":0.00025301215,"MEAN_MOTION_DOT":1.839e-5,"MEAN_MOTION_DDOT":0}]
